{
  "norad_id": 62610,
  "name": "EDISON-1",
  "history": [
    {
      "epoch": "2026-03-28T18:40:03.736128Z",
      "apogee_km": 480.3312790577529,
      "perigee_km": 473.72879347844173,
      "latitude_deg": -1.7644568245793802e-05,
      "longitude_deg": 64.31064382001168,
      "height_km": 482.6367984972902,
      "semi_major_axis_km": 6855.167036268097,
      "eccentricity": 0.00048157,
      "inclination_deg": 97.4023,
      "raan_deg": 170.5196,
      "arg_perigee_deg": 220.8064,
      "mean_anomaly_deg": 139.2816,
      "mean_motion_rev_day": 15.29592339
    },
    {
      "epoch": "2026-03-29T04:05:16.769472Z",
      "apogee_km": 480.29134635988885,
      "perigee_km": 473.65834014036045,
      "latitude_deg": -7.576846037938999e-06,
      "longitude_deg": -76.98984052243,
      "height_km": 482.651093744159,
      "semi_major_axis_km": 6855.111843250124,
      "eccentricity": 0.0004838,
      "inclination_deg": 97.4023,
      "raan_deg": 170.9103,
      "arg_perigee_deg": 219.2487,
      "mean_anomaly_deg": 140.8403,
      "mean_motion_rev_day": 15.29610812
    },
    {
      "epoch": "2026-03-29T22:55:41.829600Z",
      "apogee_km": 480.23972270754984,
      "perigee_km": 473.5341382987308,
      "latitude_deg": -4.2499050684401006e-05,
      "longitude_deg": 0.41380378804361556,
      "height_km": 482.702733731723,
      "semi_major_axis_km": 6855.02393050314,
      "eccentricity": 0.0004891,
      "inclination_deg": 97.4025,
      "raan_deg": 171.6921,
      "arg_perigee_deg": 216.1297,
      "mean_anomaly_deg": 143.9613,
      "mean_motion_rev_day": 15.29640237
    },
    {
      "epoch": "2026-03-30T05:12:29.891232Z",
      "apogee_km": 480.2166190704356,
      "perigee_km": 473.50215011172895,
      "latitude_deg": 5.4023671752907844e-05,
      "longitude_deg": -93.78387634822467,
      "height_km": 482.71492051929494,
      "semi_major_axis_km": 6854.996384591082,
      "eccentricity": 0.00048975,
      "inclination_deg": 97.4025,
      "raan_deg": 171.9526,
      "arg_perigee_deg": 215.0681,
      "mean_anomaly_deg": 145.0238,
      "mean_motion_rev_day": 15.29649457
    }
  ]
}